KUZGTU 1 (RS47S)        
1 57217U 23091AV  26185.62653015  .00024264  00000+0  82758-3 0  9997
2 57217  97.5049 250.2879 0011186  42.7073 317.5035 15.30286863167045
SONATE-2                
1 59112U 24043Q   26185.40047565  .00058343  00000+0  71676-3 0  9996
2 59112  97.5552 336.8698 0007104 140.4883 219.6892 15.60080524130570
MESAT1                  
1 60209U 24125G   26185.06008830  .00084122  00000+0  84410-3 0  9994
2 60209  97.2260  42.9476 0010872 147.3419 212.8516 15.65163693112200
OOV-CUBE (TUBSAT-30)    
1 60240U 24128F   26185.35527502  .00002684  00000+0  21119-3 0  9996
2 60240  61.9937 165.7051 0042468 137.5285 222.9106 15.02839523108693
COLIBRI-S (RS67S)       
1 61746U 24199M   26185.57901204  .00044978  00000+0  84354-3 0  9997
2 61746  97.2964  59.5973 0007573 201.2038 158.8900 15.48485076140104
HORS 3 (RS81S)          
1 61753U 24199U   26185.58674206  .00076395  00000+0  10802-2 0  9999
2 61753  97.2944  61.7861 0005642 191.0469 169.0663 15.56260809140261
HORS 4 (RS82S)          
1 61754U 24199V   26185.62068809  .00108910  00000+0  12608-2 0  9996
2 61754  97.2886  63.1398 0005753 179.8727 180.2534 15.61464451140360
SIT-2086                
1 61764U 24199AF  26185.58615170  .00076917  00000+0  11650-2 0  9998
2 61764  97.2900  62.2017 0006945 177.6574 182.4714 15.54368169137132
HYPERVIEW 1G (RS66S)    
1 61772U 24199AP  26185.62451687  .00360588  00000+0  17498-2 0  9999
2 61772  97.2817  66.2875 0007493 169.2587 190.8843 15.81489487137429
ALTAIR (RS65S)          
1 61779U 24199AW  26185.62297854  .00015736  00000+0  43060-3 0  9997
2 61779  97.3002  54.8602 0011050 238.1656 121.8514 15.37371351139793
ASRTU-1 (AO-123)        
1 61781U 24199AY  26185.62658927  .00013986  00000+0  40089-3 0  9995
2 61781  97.2973  54.1406 0012090 242.0119 117.9902 15.35938377136609
SAMSAT-IONOSPHERE (RS7*)
1 61784U 24199BB  26185.58933533  .00100413  00000+0  12645-2 0  9990
2 61784  97.2910  61.9019 0007899 196.7378 163.3619 15.59263110140272
RTU MIREA 1 (RS51S)     
1 61785U 24199BC  26185.63708760  .00124714  00000+0  13479-2 0  9995
2 61785  97.2898  62.8772 0007945 190.2233 169.8866 15.63170530137195
TEVEL2-4                
1 63213U 25052D   26185.19759899  .00026442  00000+0  77344-3 0  9993
2 63213  97.3880  81.6219 0004460  72.1659 288.0071 15.35231929 72727
TEVEL2-5                
1 63214U 25052E   26184.95930621  .00022739  00000+0  66991-3 0  9992
2 63214  97.3878  81.3261 0004471  74.0605 286.1131 15.35036262 72687
TEVEL2-6                
1 63215U 25052F   26185.16758483  .00025044  00000+0  73794-3 0  9992
2 63215  97.3882  81.5194 0004299  74.6482 285.5237 15.35012398 72715
TEVEL2-1                
1 63217U 25052H   26183.44186485  .00021382  00000+0  64322-3 0  9998
2 63217  97.3860  79.3967 0004940  84.7539 275.4267 15.34387675 72436
TEVEL2-3                
1 63218U 25052J   26185.45746719  .00027649  00000+0  82662-3 0  9993
2 63218  97.3857  81.4374 0004657  82.5997 277.5775 15.34532305 72741
TEVEL2-2                
1 63219U 25052K   26185.46367873  .00028496  00000+0  85302-3 0  9990
2 63219  97.3851  81.4223 0004847  81.4850 278.6942 15.34484342 72741
OTP-2                   
1 63235U 25052AB  26185.42868124  .00010850  00000+0  44717-3 0  9999
2 63235  97.3846  77.6017 0008301  99.9102 260.3073 15.24226530 72491
TEVEL2-9                
1 63237U 25052AD  26184.61479293  .00019142  00000+0  61259-3 0  9999
2 63237  97.3920  79.9121 0008273  87.9946 272.2243 15.32416047 72548
TEVEL2-7                
1 63238U 25052AE  26185.44265560  .00025666  00000+0  82679-3 0  9999
2 63238  97.3918  80.6472 0008341  86.1482 274.0714 15.32144794 72669
TEVEL2-8                
1 63239U 25052AF  26185.45107515  .00025737  00000+0  82944-3 0  9990
2 63239  97.3916  80.6319 0008403  86.5225 273.6978 15.32129933 72661
INNOSAT 16 (RS92S7)     
1 64878U 25155C   26185.38408058  .00007738  00000+0  30638-3 0  9996
2 64878  97.4577 152.4594 0012226 120.7442 239.5002 15.25646141 83295
GEOSCAN 6 (RS92S6)      
1 64879U 25155D   26185.37877725  .00015255  00000+0  51890-3 0  9993
2 64879  97.4569 154.0012 0009873 112.1719 248.0571 15.30486242 83393
GEOSCAN 1 (RS92S1)      
1 64880U 25155E   26185.37435051  .00016284  00000+0  54294-3 0  9991
2 64880  97.4565 154.1600 0009824 112.2327 247.9957 15.31118695 83400
239ALFEROV (RS61S)      
1 64881U 25155F   26185.38412232  .00022014  00000+0  68181-3 0  9997
2 64881  97.4565 154.7903 0009491 111.2363 248.9894 15.33424929 83449
GEOSCAN 2 (RS92S2)      
1 64890U 25155Q   26185.36504937  .00015453  00000+0  51143-3 0  9998
2 64890  97.4564 154.3098 0009241 101.8993 258.3285 15.31376054 83415
GEOSCAN 5 (RS92S5)      
1 64891U 25155R   26185.36960979  .00021418  00000+0  65717-3 0  9991
2 64891  97.4557 154.9197 0008460 115.0255 245.1867 15.33737500 83457
GEOSCAN 4 (RS92S4)      
1 64892U 25155S   26185.35203535  .00021163  00000+0  64611-3 0  9998
2 64892  97.4561 154.9555 0008469 115.0385 245.1738 15.33898420 83450
